{
  "type": "FeatureCollection",
  "features": [
    {
      "type": "Feature",
      "properties": {
        "norad_id": 43260,
        "name": "GAOFEN-1 03",
        "group": "resource",
        "lat": -50.46782407334419,
        "lon": -146.58400597721536,
        "alt_km": 647.6931371988403,
        "timestamp": "2025-12-11T15:53:39.199812+00:00",
        "meta_object_name": "GAOFEN-1 03",
        "meta_object_id": "2018-031B",
        "meta_epoch": "2025-12-11T06:43:04.471104",
        "meta_mean_motion": 14.76431768,
        "meta_eccentricity": 0.0002081,
        "meta_inclination": 98.0801,
        "meta_ra_of_asc_node": 42.9457,
        "meta_arg_of_pericenter": 328.874,
        "meta_mean_anomaly": 31.2346,
        "meta_ephemeris_type": 0,
        "meta_classification_type": "U",
        "meta_norad_cat_id": 43260,
        "meta_element_set_no": 999,
        "meta_rev_at_epoch": 41496,
        "meta_bstar": 0.00021371829,
        "meta_mean_motion_dot": 1.434e-05,
        "meta_mean_motion_ddot": 0,
        "tle_line1": "1 43260U 18031B   25345.27991286  .00001434  00000+0  21372-3 0  9990",
        "tle_line2": "2 43260  98.0801  42.9457 0002081 328.8740  31.2346 14.76431768414967"
      },
      "geometry": {
        "type": "Point",
        "coordinates": [
          -146.58400597721536,
          -50.46782407334419
        ]
      }
    },
    {
      "type": "Feature",
      "properties": {
        "norad_id": 43262,
        "name": "GAOFEN-1 04",
        "group": "resource",
        "lat": 0.29811182180938783,
        "lon": 43.454362755222014,
        "alt_km": 643.0935605484246,
        "timestamp": "2025-12-11T15:53:39.199823+00:00",
        "meta_object_name": "GAOFEN-1 04",
        "meta_object_id": "2018-031D",
        "meta_epoch": "2025-12-11T07:45:37.149696",
        "meta_mean_motion": 14.76444524,
        "meta_eccentricity": 0.00011107,
        "meta_inclination": 98.0804,
        "meta_ra_of_asc_node": 43.1577,
        "meta_arg_of_pericenter": 56.7116,
        "meta_mean_anomaly": 303.42,
        "meta_ephemeris_type": 0,
        "meta_classification_type": "U",
        "meta_norad_cat_id": 43262,
        "meta_element_set_no": 999,
        "meta_rev_at_epoch": 41496,
        "meta_bstar": 0.00022301836,
        "meta_mean_motion_dot": 1.5e-05,
        "meta_mean_motion_ddot": 0,
        "tle_line1": "1 43262U 18031D   25345.32334664  .00001500  00000+0  22302-3 0  9997",
        "tle_line2": "2 43262  98.0804  43.1577 0001110  56.7116 303.4200 14.76444524414961"
      },
      "geometry": {
        "type": "Point",
        "coordinates": [
          43.454362755222014,
          0.29811182180938783
        ]
      }
    },
    {
      "type": "Feature",
      "properties": {
        "norad_id": 43437,
        "name": "SENTINEL-3B",
        "group": "resource",
        "lat": -0.526405357787974,
        "lon": 50.94273923647597,
        "alt_km": 805.8976698262768,
        "timestamp": "2025-12-11T15:53:39.199833+00:00",
        "meta_object_name": "SENTINEL-3B",
        "meta_object_id": "2018-039A",
        "meta_epoch": "2025-12-11T04:06:53.766432",
        "meta_mean_motion": 14.26741926,
        "meta_eccentricity": 0.0001555,
        "meta_inclination": 98.6269,
        "meta_ra_of_asc_node": 50.3791,
        "meta_arg_of_pericenter": 104.5822,
        "meta_mean_anomaly": 255.5531,
        "meta_ephemeris_type": 0,
        "meta_classification_type": "U",
        "meta_norad_cat_id": 43437,
        "meta_element_set_no": 999,
        "meta_rev_at_epoch": 39731,
        "meta_bstar": 0.00011127868,
        "meta_mean_motion_dot": 2.26e-06,
        "meta_mean_motion_ddot": 0,
        "tle_line1": "1 43437U 18039A   25345.17145563  .00000226  00000+0  11128-3 0  9998",
        "tle_line2": "2 43437  98.6269  50.3791 0001555 104.5822 255.5531 14.26741926397317"
      },
      "geometry": {
        "type": "Point",
        "coordinates": [
          50.94273923647597,
          -0.526405357787974
        ]
      }
    },
    {
      "type": "Feature",
      "properties": {
        "norad_id": 43461,
        "name": "GAOFEN-5 01",
        "group": "resource",
        "lat": -37.85902507960737,
        "lon": 121.98897516049188,
        "alt_km": 698.7195098273205,
        "timestamp": "2025-12-11T15:53:39.199843+00:00",
        "meta_object_name": "GAOFEN-5 01",
        "meta_object_id": "2018-043A",
        "meta_epoch": "2025-12-10T15:52:37.152768",
        "meta_mean_motion": 14.6040665,
        "meta_eccentricity": 0.00010926,
        "meta_inclination": 98.4324,
        "meta_ra_of_asc_node": 307.5925,
        "meta_arg_of_pericenter": 348.2801,
        "meta_mean_anomaly": 11.8373,
        "meta_ephemeris_type": 0,
        "meta_classification_type": "U",
        "meta_norad_cat_id": 43461,
        "meta_element_set_no": 999,
        "meta_rev_at_epoch": 40417,
        "meta_bstar": 0.00018403532,
        "meta_mean_motion_dot": 8.42e-06,
        "meta_mean_motion_ddot": 0,
        "tle_line1": "1 43461U 18043A   25344.66154112  .00000842  00000+0  18404-3 0  9991",
        "tle_line2": "2 43461  98.4324 307.5925 0001092 348.2801  11.8373 14.60406650404170"
      },
      "geometry": {
        "type": "Point",
        "coordinates": [
          121.98897516049188,
          -37.85902507960737
        ]
      }
    },
    {
      "type": "Feature",
      "properties": {
        "norad_id": 43484,
        "name": "GAOFEN-6",
        "group": "resource",
        "lat": 28.263273016138783,
        "lon": -125.80714296948908,
        "alt_km": 638.0768650624195,
        "timestamp": "2025-12-11T15:53:39.199853+00:00",
        "meta_object_name": "GAOFEN-6",
        "meta_object_id": "2018-048A",
        "meta_epoch": "2025-12-11T07:04:49.495584",
        "meta_mean_motion": 14.76563065,
        "meta_eccentricity": 0.00132677,
        "meta_inclination": 97.8029,
        "meta_ra_of_asc_node": 49.6102,
        "meta_arg_of_pericenter": 67.9311,
        "meta_mean_anomaly": 292.3307,
        "meta_ephemeris_type": 0,
        "meta_classification_type": "U",
        "meta_norad_cat_id": 43484,
        "meta_element_set_no": 999,
        "meta_rev_at_epoch": 40566,
        "meta_bstar": 0.00024026567,
        "meta_mean_motion_dot": 1.629e-05,
        "meta_mean_motion_ddot": 0,
        "tle_line1": "1 43484U 18048A   25345.29501731  .00001629  00000+0  24027-3 0  9996",
        "tle_line2": "2 43484  97.8029  49.6102 0013267  67.9311 292.3307 14.76563065405668"
      },
      "geometry": {
        "type": "Point",
        "coordinates": [
          -125.80714296948908,
          28.263273016138783
        ]
      }
    },
    {
      "type": "Feature",
      "properties": {
        "norad_id": 43585,
        "name": "GAOFEN-11 01",
        "group": "resource",
        "lat": 36.13684296817478,
        "lon": 43.3415730692997,
        "alt_km": 416.07274646375754,
        "timestamp": "2025-12-11T15:53:39.199863+00:00",
        "meta_object_name": "GAOFEN-11 01",
        "meta_object_id": "2018-063A",
        "meta_epoch": "2025-12-11T06:26:09.419712",
        "meta_mean_motion": 15.4915643,
        "meta_eccentricity": 0.00044389,
        "meta_inclination": 97.1556,
        "meta_ra_of_asc_node": 48.2143,
        "meta_arg_of_pericenter": 320.6071,
        "meta_mean_anomaly": 39.4858,
        "meta_ephemeris_type": 0,
        "meta_classification_type": "U",
        "meta_norad_cat_id": 43585,
        "meta_element_set_no": 999,
        "meta_rev_at_epoch": 41119,
        "meta_bstar": 0.00050588116,
        "meta_mean_motion_dot": 0.00027498,
        "meta_mean_motion_ddot": 0,
        "tle_line1": "1 43585U 18063A   25345.26816458  .00027498  00000+0  50588-3 0  9990",
        "tle_line2": "2 43585  97.1556  48.2143 0004438 320.6071  39.4858 15.49156430411191"
      },
      "geometry": {
        "type": "Point",
        "coordinates": [
          43.3415730692997,
          36.13684296817478
        ]
      }
    },
    {
      "type": "Feature",
      "properties": {
        "norad_id": 43613,
        "name": "ICESAT-2",
        "group": "resource",
        "lat": -33.93097861482039,
        "lon": 59.096522112607325,
        "alt_km": 486.289312404434,
        "timestamp": "2025-12-11T15:53:39.199873+00:00",
        "meta_object_name": "ICESAT-2",
        "meta_object_id": "2018-070A",
        "meta_epoch": "2025-12-11T05:31:58.704384",
        "meta_mean_motion": 15.28336638,
        "meta_eccentricity": 0.00025939,
        "meta_inclination": 92.0043,
        "meta_ra_of_asc_node": 240.3301,
        "meta_arg_of_pericenter": 152.7163,
        "meta_mean_anomaly": 207.4223,
        "meta_ephemeris_type": 0,
        "meta_classification_type": "U",
        "meta_norad_cat_id": 43613,
        "meta_element_set_no": 999,
        "meta_rev_at_epoch": 40375,
        "meta_bstar": 0.00080516394,
        "meta_mean_motion_dot": 0.00022244,
        "meta_mean_motion_ddot": 0,
        "tle_line1": "1 43613U 18070A   25345.23054056  .00022244  00000+0  80516-3 0  9993",
        "tle_line2": "2 43613  92.0043 240.3301 0002593 152.7163 207.4223 15.28336638403758"
      },
      "geometry": {
        "type": "Point",
        "coordinates": [
          59.096522112607325,
          -33.93097861482039
        ]
      }
    }
  ]
}